[{"OBJECT_NAME":"STARLINK-30813","OBJECT_ID":"2023-170H","EPOCH":"2026-03-08T10:45:26.792064","MEAN_MOTION":15.26795732,"ECCENTRICITY":0.00021909,"INCLINATION":43.0016,"RA_OF_ASC_NODE":200.8924,"ARG_OF_PERICENTER":276.2944,"MEAN_ANOMALY":83.7658,"EPHEMERIS_TYPE":0,"CLASSIFICATION_TYPE":"U","NORAD_CAT_ID":58213,"ELEMENT_SET_NO":999,"REV_AT_EPOCH":13011,"BSTAR":-0.001014739,"MEAN_MOTION_DOT":-0.00027426,"MEAN_MOTION_DDOT":0},{"OBJECT_NAME":"OBJECT P","OBJECT_ID":"2025-155P","EPOCH":"2026-03-09T22:15:55.475424","MEAN_MOTION":15.2544775,"ECCENTRICITY":0.00080527,"INCLINATION":97.4496,"RA_OF_ASC_NODE":37.0295,"ARG_OF_PERICENTER":153.0691,"MEAN_ANOMALY":207.0966,"EPHEMERIS_TYPE":0,"CLASSIFICATION_TYPE":"U","NORAD_CAT_ID":64889,"ELEMENT_SET_NO":999,"REV_AT_EPOCH":6557,"BSTAR":0.00031377111,"MEAN_MOTION_DOT":7.871e-5,"MEAN_MOTION_DDOT":0}]
